OBJECT_NAME,OBJECT_ID,EPOCH,MEAN_MOTION,ECCENTRICITY,INCLINATION,RA_OF_ASC_NODE,ARG_OF_PERICENTER,MEAN_ANOMALY,EPHEMERIS_TYPE,CLASSIFICATION_TYPE,NORAD_CAT_ID,ELEMENT_SET_NO,REV_AT_EPOCH,BSTAR,MEAN_MOTION_DOT,MEAN_MOTION_DDOT
STARLINK-37296,2026-077L,2026-06-06T14:25:06.121056,15.33468921,.0001903,97.2853,28.9952,89.2661,270.8800,0,U,68672,999,878,.10351E-2,.33517E-3,0
STARLINK-37316,2026-077M,2026-06-06T14:21:11.013696,15.33474304,.0002069,97.2855,29.0014,94.3381,265.8099,0,U,68673,999,878,.11024E-2,.35716E-3,0
STARLINK-36672,2026-077N,2026-06-06T14:17:16.342656,15.33465360,.0001964,97.2847,29.0005,90.7784,269.3684,0,U,68674,999,878,.1077E-2,.34879E-3,0
STARLINK-36669,2026-077P,2026-06-06T14:13:21.307008,15.33468820,.0001809,97.2850,29.0062,86.4721,273.6728,0,U,68675,999,878,.10616E-2,.34381E-3,0
STARLINK-37312,2026-077Q,2026-06-06T13:53:46.805280,15.33460884,.0001929,97.2858,29.0254,92.0754,268.0709,0,U,68676,999,878,.81961E-3,.26492E-3,0
STARLINK-36168,2026-077R,2026-06-06T14:05:31.317792,15.33471155,.0001837,97.2849,29.0117,90.8257,269.3196,0,U,68677,999,878,.88129E-3,.28508E-3,0
STARLINK-37122,2026-077S,2026-06-06T14:01:36.302016,15.33471795,.0001808,97.2859,29.0174,88.0116,272.1334,0,U,68678,999,878,.80467E-3,.26015E-3,0
STARLINK-37310,2026-077T,2026-06-06T13:57:41.573952,15.33463971,.0001852,97.2866,29.0195,111.0426,249.1014,0,U,68679,999,878,.89325E-3,.28891E-3,0
STARLINK-37306,2026-077U,2026-06-06T13:45:56.996640,15.33463611,.0001897,97.2859,29.0314,93.5291,266.6168,0,U,68680,999,878,.95367E-3,.30858E-3,0
STARLINK-37307,2026-077V,2026-06-06T13:49:51.685824,15.33469029,.0002053,97.2856,29.0294,89.2794,270.8684,0,U,68681,999,878,.90972E-3,.29432E-3,0
STARLINK-37300,2026-077W,2026-06-06T15:04:15.220416,15.33464575,.0001708,97.2849,29.1116,92.6724,267.4714,0,U,68682,999,879,.74252E-3,.23988E-3,0
STARLINK-37304,2026-077X,2026-06-06T15:08:10.079808,15.33463307,.000181,97.2860,29.1072,96.0857,264.0592,0,U,68683,999,879,.87168E-3,.28188E-3,0
STARLINK-37287,2026-077Y,2026-06-06T13:38:07.010880,15.33463532,.0001886,97.2864,29.0387,96.2769,263.8689,0,U,68684,999,878,.99244E-3,.32121E-3,0
STARLINK-36278,2026-077Z,2026-06-06T13:41:17.831328,15.75235942,.0001655,97.2857,30.8698,81.3749,278.7704,0,U,68685,999,890,.99539E-3,.151299E-2,0
STARLINK-37213,2026-077AA,2026-06-06T13:42:02.203776,15.33462343,.000185,97.2863,29.0331,93.0405,267.1049,0,U,68686,999,878,.11105E-2,.35968E-3,0
HJS-8A,2026-078A,2026-05-21T23:26:57.524352,13.41533810,.0002158,86.4931,291.3573,152.0869,208.0390,0,U,68687,999,549,.28312E-3,.173E-5,0
CYGNUS NG-24,2026-079A,2026-06-06T08:29:08.565504,15.49632727,.00070327,51.6338,353.7235,140.5893,219.5608,0,U,68689,999,63684,.17682051E-3,.9524E-4,0
JILIN GAOFEN OBJECT A,2026-080A,2026-06-06T17:46:28.246080,15.08836228,.0014108,97.6618,233.2768,100.2833,259.9986,0,U,68691,999,808,.45564E-3,.7125E-4,0
JILIN GAOFEN OBJECT B,2026-080B,2026-06-06T20:28:17.859072,15.08750003,.0018024,97.6591,233.4204,82.7865,277.5411,0,U,68692,999,810,.38127E-3,.5945E-4,0
JILIN GAOFEN OBJECT C,2026-080C,2026-06-06T17:44:04.055712,15.08822352,.0015259,97.6597,233.2681,84.4077,275.8891,0,U,68693,999,808,.46245E-3,.7233E-4,0
JILIN GAOFEN OBJECT D,2026-080D,2026-06-06T14:02:15.965664,15.08607016,.001953,97.6654,233.2027,94.0675,266.2786,0,U,68694,999,804,.42368E-3,.6592E-4,0
JILIN GAOFEN OBJECT E,2026-080E,2026-06-06T13:46:28.369344,15.08886621,.0015052,97.6632,233.2046,103.1474,257.1435,0,U,68695,999,802,.40705E-3,.6368E-4,0
JILIN GAOFEN OBJECT F,2026-080F,2026-06-06T20:05:41.667648,15.08854623,.0015953,97.6603,233.4525,107.7890,252.5080,0,U,68696,999,806,.46424E-3,.7269E-4,0
JILIN GAOFEN OBJECT G,2026-080G,2026-06-06T19:56:06.389664,15.10077563,.001691,97.6650,233.4909,101.6261,258.6867,0,U,68697,999,806,.48258E-3,.7821E-4,0
JILIN GAOFEN OBJECT H,2026-080H,2026-06-06T18:18:38.715840,15.10118528,.0016737,97.6635,233.4184,102.7478,257.5623,0,U,68698,999,805,.52719E-3,.856E-4,0
STARLINK-37358,2026-081A,2026-06-06T18:49:01.292736,15.34421521,.0001196,53.1603,340.2522,257.0226,103.0643,0,U,68699,999,838,.45331E-3,.14981E-3,0
STARLINK-37334,2026-081B,2026-06-06T20:19:47.903808,15.34424775,.0001048,53.1598,339.9417,78.1181,281.9939,0,U,68700,999,839,.81022E-3,.27119E-3,0
STARLINK-36955,2026-081C,2026-06-06T18:42:58.544928,15.34457272,.0000897,53.1604,340.2298,92.5077,267.6028,0,U,68701,999,838,.1583E-2,.53589E-3,0
STARLINK-36275,2026-081D,2026-06-05T00:00:02.000160,15.34359493,.00007295,53.1587,348.5424,78.2105,176.5831,0,U,68702,999,608,.19124284E-2,.64713E-3,0
STARLINK-36271,2026-081E,2026-06-06T18:36:55.080000,15.34431431,.0001095,53.1596,340.2052,87.0755,273.0373,0,U,68703,999,838,.91898E-3,.30832E-3,0
