STARLINK-37296          
1 68672U 26077L   26157.60076529  .00033517  00000+0  10351-2 0  9997
2 68672  97.2853  28.9952 0001903  89.2661 270.8800 15.33468921  8785
STARLINK-37316          
1 68673U 26077M   26157.59804414  .00035716  00000+0  11024-2 0  9999
2 68673  97.2855  29.0014 0002069  94.3381 265.8099 15.33474304  8785
STARLINK-36672          
1 68674U 26077N   26157.59532804  .00034879  00000+0  10770-2 0  9997
2 68674  97.2847  29.0005 0001964  90.7784 269.3684 15.33465360  8788
STARLINK-36669          
1 68675U 26077P   26157.59260772  .00034381  00000+0  10616-2 0  9997
2 68675  97.2850  29.0062 0001809  86.4721 273.6728 15.33468820  8788
STARLINK-37312          
1 68676U 26077Q   26157.57901395  .00026492  00000+0  81961-3 0  9995
2 68676  97.2858  29.0254 0001929  92.0754 268.0709 15.33460884  8781
STARLINK-36168          
1 68677U 26077R   26157.58716803  .00028508  00000+0  88129-3 0  9998
2 68677  97.2849  29.0117 0001837  90.8257 269.3196 15.33471155  8789
STARLINK-37122          
1 68678U 26077S   26157.58444794  .00026015  00000+0  80467-3 0  9994
2 68678  97.2859  29.0174 0001808  88.0116 272.1334 15.33471795  8781
STARLINK-37310          
1 68679U 26077T   26157.58173118  .00028891  00000+0  89325-3 0  9990
2 68679  97.2866  29.0195 0001852 111.0426 249.1014 15.33463971  8789
STARLINK-37306          
1 68680U 26077U   26157.57357635  .00030858  00000+0  95367-3 0  9998
2 68680  97.2859  29.0314 0001897  93.5291 266.6168 15.33463611  8784
STARLINK-37307          
1 68681U 26077V   26157.57629266  .00029432  00000+0  90972-3 0  9994
2 68681  97.2856  29.0294 0002053  89.2794 270.8684 15.33469029  8783
STARLINK-37300          
1 68682U 26077W   26157.62795394  .00023988  00000+0  74252-3 0  9990
2 68682  97.2849  29.1116 0001708  92.6724 267.4714 15.33464575  8795
STARLINK-37304          
1 68683U 26077X   26157.63067222  .00028188  00000+0  87168-3 0  9991
2 68683  97.2860  29.1072 0001810  96.0857 264.0592 15.33463307  8798
STARLINK-37287          
1 68684U 26077Y   26157.56813670  .00032121  00000+0  99244-3 0  9990
2 68684  97.2864  29.0387 0001886  96.2769 263.8689 15.33463532  8781
STARLINK-36278          
1 68685U 26077Z   26157.57034527  .00151299  00000+0  99539-3 0  9993
2 68685  97.2857  30.8698 0001655  81.3749 278.7704 15.75235942  8901
STARLINK-37213          
1 68686U 26077AA  26157.57085884  .00035968  00000+0  11105-2 0  9992
2 68686  97.2863  29.0331 0001850  93.0405 267.1049 15.33462343  8780
HJS-8A                  
1 68687U 26078A   26141.97705468  .00000173  00000+0  28312-3 0  9997
2 68687  86.4931 291.3573 0002158 152.0869 208.0390 13.41533810  5494
CYGNUS NG-24            
1 68689U 26079A   26157.35357136  .00009524  00000+0  17682-3 0  9991
2 68689  51.6338 353.7235 0007032 140.5893 219.5608 15.49632727636849
JILIN GAOFEN OBJECT A   
1 68691U 26080A   26157.74060470  .00007125  00000+0  45564-3 0  9996
2 68691  97.6618 233.2768 0014108 100.2833 259.9986 15.08836228  8088
JILIN GAOFEN OBJECT B   
1 68692U 26080B   26157.85298448  .00005945  00000+0  38127-3 0  9992
2 68692  97.6591 233.4204 0018024  82.7865 277.5411 15.08750003  8104
JILIN GAOFEN OBJECT C   
1 68693U 26080C   26157.73893583  .00007233  00000+0  46245-3 0  9993
2 68693  97.6597 233.2681 0015259  84.4077 275.8891 15.08822352  8086
JILIN GAOFEN OBJECT D   
1 68694U 26080D   26157.58490701  .00006592  00000+0  42368-3 0  9991
2 68694  97.6654 233.2027 0019530  94.0675 266.2786 15.08607016  8043
JILIN GAOFEN OBJECT E   
1 68695U 26080E   26157.57393946  .00006368  00000+0  40705-3 0  9998
2 68695  97.6632 233.2046 0015052 103.1474 257.1435 15.08886621  8024
JILIN GAOFEN OBJECT F   
1 68696U 26080F   26157.83728782  .00007269  00000+0  46424-3 0  9993
2 68696  97.6603 233.4525 0015953 107.7890 252.5080 15.08854623  8065
JILIN GAOFEN OBJECT G   
1 68697U 26080G   26157.83062951  .00007821  00000+0  48258-3 0  9994
2 68697  97.6650 233.4909 0016910 101.6261 258.6867 15.10077563  8066
JILIN GAOFEN OBJECT H   
1 68698U 26080H   26157.76294810  .00008560  00000+0  52719-3 0  9996
2 68698  97.6635 233.4184 0016737 102.7478 257.5623 15.10118528  8058
STARLINK-37358          
1 68699U 26081A   26157.78404274  .00014981  00000+0  45331-3 0  9993
2 68699  53.1603 340.2522 0001196 257.0226 103.0643 15.34421521  8381
STARLINK-37334          
1 68700U 26081B   26157.84708222  .00027119  00000+0  81022-3 0  9997
2 68700  53.1598 339.9417 0001048  78.1181 281.9939 15.34424775  8392
STARLINK-36955          
1 68701U 26081C   26157.77984427  .00053589  00000+0  15830-2 0  9996
2 68701  53.1604 340.2298 0000897  92.5077 267.6028 15.34457272  8385
STARLINK-36275          
1 68702U 26081D   26156.00002315  .00064713  00000+0  19124-2 0  9990
2 68702  53.1587 348.5424 0000729  78.2105 176.5831 15.34359493  6086
STARLINK-36271          
1 68703U 26081E   26157.77563750  .00030832  00000+0  91898-3 0  9995
2 68703  53.1596 340.2052 0001095  87.0755 273.0373 15.34431431  8381
